[{"OBJECT_NAME":"WNISAT 1R","OBJECT_ID":"2017-042L","EPOCH":"2026-03-09T20:41:10.613760","MEAN_MOTION":15.01153186,"ECCENTRICITY":0.00133015,"INCLINATION":97.4515,"RA_OF_ASC_NODE":228.7079,"ARG_OF_PERICENTER":131.3338,"MEAN_ANOMALY":228.9034,"EPHEMERIS_TYPE":0,"CLASSIFICATION_TYPE":"U","NORAD_CAT_ID":42835,"ELEMENT_SET_NO":999,"REV_AT_EPOCH":47160,"BSTAR":0.00037839839,"MEAN_MOTION_DOT":4.802e-5,"MEAN_MOTION_DDOT":0},{"OBJECT_NAME":"STARLINK-5688","OBJECT_ID":"2023-015AG","EPOCH":"2026-03-09T00:07:54.086304","MEAN_MOTION":15.02536651,"ECCENTRICITY":0.00015668,"INCLINATION":43.0057,"RA_OF_ASC_NODE":317.3377,"ARG_OF_PERICENTER":265.3428,"MEAN_ANOMALY":94.7236,"EPHEMERIS_TYPE":0,"CLASSIFICATION_TYPE":"U","NORAD_CAT_ID":55479,"ELEMENT_SET_NO":999,"REV_AT_EPOCH":17079,"BSTAR":2.7848221e-5,"MEAN_MOTION_DOT":1.72e-6,"MEAN_MOTION_DDOT":0}]
